{
  "type": "FeatureCollection",
  "features": [
    {
      "type": "Feature",
      "properties": {
        "norad_id": 58701,
        "name": "TIANMU-1 16",
        "group": "weather",
        "lat": -27.16705600372974,
        "lon": 170.9563601434851,
        "alt_km": 495.7907257953402,
        "timestamp": "2025-12-12T05:47:28.415145+00:00",
        "meta_object_name": "TIANMU-1 16",
        "meta_object_id": "2024-004B",
        "meta_epoch": "2025-12-11T23:36:34.792128",
        "meta_mean_motion": 15.24417331,
        "meta_eccentricity": 0.00045112,
        "meta_inclination": 97.4571,
        "meta_ra_of_asc_node": 166.8457,
        "meta_arg_of_pericenter": 299.6673,
        "meta_mean_anomaly": 60.4115,
        "meta_ephemeris_type": 0,
        "meta_classification_type": "U",
        "meta_norad_cat_id": 58701,
        "meta_element_set_no": 999,
        "meta_rev_at_epoch": 10723,
        "meta_bstar": 0.00043584826,
        "meta_mean_motion_dot": 0.00010625,
        "meta_mean_motion_ddot": 0,
        "tle_line1": "1 58701U 24004B   25345.98373602  .00010625  00000+0  43585-3 0  9999",
        "tle_line2": "2 58701  97.4571 166.8457 0004511 299.6673  60.4115 15.24417331107237"
      },
      "geometry": {
        "type": "Point",
        "coordinates": [
          170.9563601434851,
          -27.16705600372974
        ]
      }
    },
    {
      "type": "Feature",
      "properties": {
        "norad_id": 58702,
        "name": "TIANMU-1 17",
        "group": "weather",
        "lat": 56.32058379392017,
        "lon": 156.1708872307255,
        "alt_km": 488.07633022722985,
        "timestamp": "2025-12-12T05:47:28.415159+00:00",
        "meta_object_name": "TIANMU-1 17",
        "meta_object_id": "2024-004C",
        "meta_epoch": "2025-12-12T00:48:56.937312",
        "meta_mean_motion": 15.24462665,
        "meta_eccentricity": 0.00037037,
        "meta_inclination": 97.4606,
        "meta_ra_of_asc_node": 167.3054,
        "meta_arg_of_pericenter": 303.8291,
        "meta_mean_anomaly": 56.2594,
        "meta_ephemeris_type": 0,
        "meta_classification_type": "U",
        "meta_norad_cat_id": 58702,
        "meta_element_set_no": 999,
        "meta_rev_at_epoch": 10723,
        "meta_bstar": 0.00040342662,
        "meta_mean_motion_dot": 9.841e-05,
        "meta_mean_motion_ddot": 0,
        "tle_line1": "1 58702U 24004C   25346.03399233  .00009841  00000+0  40343-3 0  9992",
        "tle_line2": "2 58702  97.4606 167.3054 0003703 303.8291  56.2594 15.24462665107236"
      },
      "geometry": {
        "type": "Point",
        "coordinates": [
          156.1708872307255,
          56.32058379392017
        ]
      }
    },
    {
      "type": "Feature",
      "properties": {
        "norad_id": 58703,
        "name": "TIANMU-1 18",
        "group": "weather",
        "lat": 30.994150253412116,
        "lon": -7.776888893401327,
        "alt_km": 492.71843687893306,
        "timestamp": "2025-12-12T05:47:28.415169+00:00",
        "meta_object_name": "TIANMU-1 18",
        "meta_object_id": "2024-004D",
        "meta_epoch": "2025-12-12T00:24:54.792576",
        "meta_mean_motion": 15.24449282,
        "meta_eccentricity": 0.0003059,
        "meta_inclination": 97.4622,
        "meta_ra_of_asc_node": 167.484,
        "meta_arg_of_pericenter": 303.8958,
        "meta_mean_anomaly": 56.1988,
        "meta_ephemeris_type": 0,
        "meta_classification_type": "U",
        "meta_norad_cat_id": 58703,
        "meta_element_set_no": 999,
        "meta_rev_at_epoch": 10723,
        "meta_bstar": 0.00039197046,
        "meta_mean_motion_dot": 9.555e-05,
        "meta_mean_motion_ddot": 0,
        "tle_line1": "1 58703U 24004D   25346.01730084  .00009555  00000+0  39197-3 0  9991",
        "tle_line2": "2 58703  97.4622 167.4840 0003059 303.8958  56.1988 15.24449282107239"
      },
      "geometry": {
        "type": "Point",
        "coordinates": [
          -7.776888893401327,
          30.994150253412116
        ]
      }
    },
    {
      "type": "Feature",
      "properties": {
        "norad_id": 58990,
        "name": "INSAT-3DS",
        "group": "weather",
        "lat": 0.004230238439020551,
        "lon": -109.87033681270032,
        "alt_km": 35780.28732621575,
        "timestamp": "2025-12-12T05:47:28.415181+00:00",
        "meta_object_name": "INSAT-3DS",
        "meta_object_id": "2024-033A",
        "meta_epoch": "2025-12-11T23:22:47.486208",
        "meta_mean_motion": 1.00272538,
        "meta_eccentricity": 0.00013614,
        "meta_inclination": 0.0393,
        "meta_ra_of_asc_node": 135.6094,
        "meta_arg_of_pericenter": 128.2907,
        "meta_mean_anomaly": 249.804,
        "meta_ephemeris_type": 0,
        "meta_classification_type": "U",
        "meta_norad_cat_id": 58990,
        "meta_element_set_no": 999,
        "meta_rev_at_epoch": 4519,
        "meta_bstar": 0,
        "meta_mean_motion_dot": -1.47e-06,
        "meta_mean_motion_ddot": 0,
        "tle_line1": "1 58990U 24033A   25345.97416072 -.00000147  00000+0  00000+0 0  9999",
        "tle_line2": "2 58990   0.0393 135.6094 0001361 128.2907 249.8040  1.00272538 45190"
      },
      "geometry": {
        "type": "Point",
        "coordinates": [
          -109.87033681270032,
          0.004230238439020551
        ]
      }
    },
    {
      "type": "Feature",
      "properties": {
        "norad_id": 59051,
        "name": "METEOR-M2 4",
        "group": "weather",
        "lat": 33.23131550500527,
        "lon": 128.899617465301,
        "alt_km": 819.3779956058397,
        "timestamp": "2025-12-12T05:47:28.415192+00:00",
        "meta_object_name": "METEOR-M2 4",
        "meta_object_id": "2024-039A",
        "meta_epoch": "2025-12-12T00:02:29.281056",
        "meta_mean_motion": 14.22401074,
        "meta_eccentricity": 0.00070809,
        "meta_inclination": 98.6765,
        "meta_ra_of_asc_node": 302.9222,
        "meta_arg_of_pericenter": 0.7412,
        "meta_mean_anomaly": 359.3775,
        "meta_ephemeris_type": 0,
        "meta_classification_type": "U",
        "meta_norad_cat_id": 59051,
        "meta_element_set_no": 999,
        "meta_rev_at_epoch": 9265,
        "meta_bstar": 5.346211e-05,
        "meta_mean_motion_dot": 7.5e-07,
        "meta_mean_motion_ddot": 0,
        "tle_line1": "1 59051U 24039A   25346.00172779  .00000075  00000+0  53462-4 0  9996",
        "tle_line2": "2 59051  98.6765 302.9222 0007080   0.7412 359.3775 14.22401074 92658"
      },
      "geometry": {
        "type": "Point",
        "coordinates": [
          128.899617465301,
          33.23131550500527
        ]
      }
    },
    {
      "type": "Feature",
      "properties": {
        "norad_id": 60133,
        "name": "GOES 19",
        "group": "weather",
        "lat": -0.011096521013759733,
        "lon": 92.87707985145659,
        "alt_km": 35790.65736229965,
        "timestamp": "2025-12-12T05:47:28.415204+00:00",
        "meta_object_name": "GOES 19",
        "meta_object_id": "2024-119A",
        "meta_epoch": "2025-12-11T23:25:35.124672",
        "meta_mean_motion": 1.00270948,
        "meta_eccentricity": 0.00012955,
        "meta_inclination": 0.0413,
        "meta_ra_of_asc_node": 148.6315,
        "meta_arg_of_pericenter": 162.2018,
        "meta_mean_anomaly": 46.3074,
        "meta_ephemeris_type": 0,
        "meta_classification_type": "U",
        "meta_norad_cat_id": 60133,
        "meta_element_set_no": 999,
        "meta_rev_at_epoch": 508,
        "meta_bstar": 0,
        "meta_mean_motion_dot": -2.39e-06,
        "meta_mean_motion_ddot": 0,
        "tle_line1": "1 60133U 24119A   25345.97610098 -.00000239  00000+0  00000+0 0  9992",
        "tle_line2": "2 60133   0.0413 148.6315 0001295 162.2018  46.3074  1.00270948  5086"
      },
      "geometry": {
        "type": "Point",
        "coordinates": [
          92.87707985145659,
          -0.011096521013759733
        ]
      }
    },
    {
      "type": "Feature",
      "properties": {
        "norad_id": 65815,
        "name": "FENGYUN 3H",
        "group": "weather",
        "lat": 29.101048102626542,
        "lon": -79.02287844061189,
        "alt_km": 824.0137624492227,
        "timestamp": "2025-12-12T05:47:28.415241+00:00",
        "meta_object_name": "FENGYUN 3H",
        "meta_object_id": "2025-219A",
        "meta_epoch": "2025-12-11T22:53:16.970496",
        "meta_mean_motion": 14.19904399,
        "meta_eccentricity": 6.106e-05,
        "meta_inclination": 98.6583,
        "meta_ra_of_asc_node": 285.5611,
        "meta_arg_of_pericenter": 90.7038,
        "meta_mean_anomaly": 269.4208,
        "meta_ephemeris_type": 0,
        "meta_classification_type": "U",
        "meta_norad_cat_id": 65815,
        "meta_element_set_no": 999,
        "meta_rev_at_epoch": 1081,
        "meta_bstar": 0.00010523179,
        "meta_mean_motion_dot": 1.8e-06,
        "meta_mean_motion_ddot": 0,
        "tle_line1": "1 65815U 25219A   25345.95366864  .00000180  00000+0  10523-3 0  9992",
        "tle_line2": "2 65815  98.6583 285.5611 0000610  90.7038 269.4208 14.19904399 10818"
      },
      "geometry": {
        "type": "Point",
        "coordinates": [
          -79.02287844061189,
          29.101048102626542
        ]
      }
    }
  ]
}